{
  "type": "FeatureCollection",
  "features": [
    {
      "type": "Feature",
      "properties": {
        "norad_id": 35062,
        "name": "COSMOS 2251 DEB",
        "group": "cosmos-2251-debris",
        "lat": -34.73214770501292,
        "lon": -64.1115286949792,
        "alt_km": 852.4965069564923,
        "timestamp": "2025-12-06T11:28:11.458224+00:00",
        "meta_object_name": "COSMOS 2251 DEB",
        "meta_object_id": "1993-036AHR",
        "meta_epoch": "2025-12-01T08:58:12.976320",
        "meta_mean_motion": 14.22770227,
        "meta_eccentricity": 0.01291712,
        "meta_inclination": 74.0782,
        "meta_ra_of_asc_node": 113.6209,
        "meta_arg_of_pericenter": 116.5829,
        "meta_mean_anomaly": 244.8622,
        "meta_ephemeris_type": 0,
        "meta_classification_type": "U",
        "meta_norad_cat_id": 35062,
        "meta_element_set_no": 999,
        "meta_rev_at_epoch": 85337,
        "meta_bstar": 0.0022023834,
        "meta_mean_motion_dot": 5.359e-05,
        "meta_mean_motion_ddot": 0,
        "tle_line1": "1 35062U 93036AHR 25335.37376130  .00005359  00000+0  22024-2 0  9998",
        "tle_line2": "2 35062  74.0782 113.6209 0129171 116.5829 244.8622 14.22770227853379"
      },
      "geometry": {
        "type": "Point",
        "coordinates": [
          -64.1115286949792,
          -34.73214770501292
        ]
      }
    },
    {
      "type": "Feature",
      "properties": {
        "norad_id": 35065,
        "name": "COSMOS 2251 DEB",
        "group": "cosmos-2251-debris",
        "lat": 65.78528768856506,
        "lon": -13.554992541345744,
        "alt_km": 743.0590167187411,
        "timestamp": "2025-12-06T11:28:11.458234+00:00",
        "meta_object_name": "COSMOS 2251 DEB",
        "meta_object_id": "1993-036AHU",
        "meta_epoch": "2025-12-05T21:41:03.860160",
        "meta_mean_motion": 14.45696164,
        "meta_eccentricity": 0.00196068,
        "meta_inclination": 74.0203,
        "meta_ra_of_asc_node": 207.0973,
        "meta_arg_of_pericenter": 333.182,
        "meta_mean_anomaly": 26.8323,
        "meta_ephemeris_type": 0,
        "meta_classification_type": "U",
        "meta_norad_cat_id": 35065,
        "meta_element_set_no": 999,
        "meta_rev_at_epoch": 68252,
        "meta_bstar": 0.00075039206,
        "meta_mean_motion_dot": 2.636e-05,
        "meta_mean_motion_ddot": 0,
        "tle_line1": "1 35065U 93036AHU 25339.90351690  .00002636  00000+0  75039-3 0  9998",
        "tle_line2": "2 35065  74.0203 207.0973 0019606 333.1820  26.8323 14.45696164682520"
      },
      "geometry": {
        "type": "Point",
        "coordinates": [
          -13.554992541345744,
          65.78528768856506
        ]
      }
    },
    {
      "type": "Feature",
      "properties": {
        "norad_id": 35071,
        "name": "COSMOS 2251 DEB",
        "group": "cosmos-2251-debris",
        "lat": 64.7258911216404,
        "lon": -31.314004806300424,
        "alt_km": 507.1258100385421,
        "timestamp": "2025-12-06T11:28:11.458244+00:00",
        "meta_object_name": "COSMOS 2251 DEB",
        "meta_object_id": "1993-036AJA",
        "meta_epoch": "2025-12-05T07:50:09.384000",
        "meta_mean_motion": 15.03238843,
        "meta_eccentricity": 0.00683145,
        "meta_inclination": 73.9311,
        "meta_ra_of_asc_node": 188.6779,
        "meta_arg_of_pericenter": 87.4008,
        "meta_mean_anomaly": 273.4998,
        "meta_ephemeris_type": 0,
        "meta_classification_type": "U",
        "meta_norad_cat_id": 35071,
        "meta_element_set_no": 999,
        "meta_rev_at_epoch": 67425,
        "meta_bstar": 0.0012723531,
        "meta_mean_motion_dot": 0.0001814,
        "meta_mean_motion_ddot": 0,
        "tle_line1": "1 35071U 93036AJA 25339.32649750  .00018140  00000+0  12724-2 0  9996",
        "tle_line2": "2 35071  73.9311 188.6779 0068314  87.4008 273.4998 15.03238843674250"
      },
      "geometry": {
        "type": "Point",
        "coordinates": [
          -31.314004806300424,
          64.7258911216404
        ]
      }
    },
    {
      "type": "Feature",
      "properties": {
        "norad_id": 35073,
        "name": "COSMOS 2251 DEB",
        "group": "cosmos-2251-debris",
        "lat": -67.84234903066522,
        "lon": -61.45783425062596,
        "alt_km": 580.4088409490687,
        "timestamp": "2025-12-06T11:28:11.458254+00:00",
        "meta_object_name": "COSMOS 2251 DEB",
        "meta_object_id": "1993-036AJC",
        "meta_epoch": "2025-12-05T18:11:38.167296",
        "meta_mean_motion": 14.9993709,
        "meta_eccentricity": 0.00102838,
        "meta_inclination": 74.0007,
        "meta_ra_of_asc_node": 344.8036,
        "meta_arg_of_pericenter": 85.9813,
        "meta_mean_anomaly": 274.2549,
        "meta_ephemeris_type": 0,
        "meta_classification_type": "U",
        "meta_norad_cat_id": 35073,
        "meta_element_set_no": 999,
        "meta_rev_at_epoch": 67374,
        "meta_bstar": 0.004299626,
        "meta_mean_motion_dot": 0.0005383,
        "meta_mean_motion_ddot": 0,
        "tle_line1": "1 35073U 93036AJC 25339.75808064  .00053830  00000+0  42996-2 0  9999",
        "tle_line2": "2 35073  74.0007 344.8036 0010283  85.9813 274.2549 14.99937090673745"
      },
      "geometry": {
        "type": "Point",
        "coordinates": [
          -61.45783425062596,
          -67.84234903066522
        ]
      }
    },
    {
      "type": "Feature",
      "properties": {
        "norad_id": 35284,
        "name": "COSMOS 2251 DEB",
        "group": "cosmos-2251-debris",
        "lat": -29.67663265829146,
        "lon": -93.42597338464488,
        "alt_km": 758.9595540492746,
        "timestamp": "2025-12-06T11:28:11.458265+00:00",
        "meta_object_name": "COSMOS 2251 DEB",
        "meta_object_id": "1993-036AJN",
        "meta_epoch": "2025-12-04T04:49:40.154016",
        "meta_mean_motion": 14.38302893,
        "meta_eccentricity": 0.0016445,
        "meta_inclination": 74.0489,
        "meta_ra_of_asc_node": 280.1443,
        "meta_arg_of_pericenter": 358.2781,
        "meta_mean_anomaly": 66.8763,
        "meta_ephemeris_type": 0,
        "meta_classification_type": "U",
        "meta_norad_cat_id": 35284,
        "meta_element_set_no": 999,
        "meta_rev_at_epoch": 65403,
        "meta_bstar": 0.00035677,
        "meta_mean_motion_dot": 1.061e-05,
        "meta_mean_motion_ddot": 0,
        "tle_line1": "1 35284U 93036AJN 25338.20115919  .00001061  00000+0  35677-3 0  9990",
        "tle_line2": "2 35284  74.0489 280.1443 0016445 358.2781  66.8763 14.38302893654037"
      },
      "geometry": {
        "type": "Point",
        "coordinates": [
          -93.42597338464488,
          -29.67663265829146
        ]
      }
    },
    {
      "type": "Feature",
      "properties": {
        "norad_id": 35287,
        "name": "COSMOS 2251 DEB",
        "group": "cosmos-2251-debris",
        "lat": -8.352004169731462,
        "lon": 110.05194505421503,
        "alt_km": 785.9246222711809,
        "timestamp": "2025-12-06T11:28:11.458275+00:00",
        "meta_object_name": "COSMOS 2251 DEB",
        "meta_object_id": "1993-036AJR",
        "meta_epoch": "2025-12-05T15:21:41.888160",
        "meta_mean_motion": 14.36366268,
        "meta_eccentricity": 0.00172627,
        "meta_inclination": 74.03,
        "meta_ra_of_asc_node": 289.1814,
        "meta_arg_of_pericenter": 27.8531,
        "meta_mean_anomaly": 149.9879,
        "meta_ephemeris_type": 0,
        "meta_classification_type": "U",
        "meta_norad_cat_id": 35287,
        "meta_element_set_no": 999,
        "meta_rev_at_epoch": 86790,
        "meta_bstar": 0.00027832351,
        "meta_mean_motion_dot": 7.9e-06,
        "meta_mean_motion_ddot": 0,
        "tle_line1": "1 35287U 93036AJR 25339.64006815  .00000790  00000+0  27832-3 0  9998",
        "tle_line2": "2 35287  74.0300 289.1814 0017262  27.8531 149.9879 14.36366268867900"
      },
      "geometry": {
        "type": "Point",
        "coordinates": [
          110.05194505421503,
          -8.352004169731462
        ]
      }
    },
    {
      "type": "Feature",
      "properties": {
        "norad_id": 35288,
        "name": "COSMOS 2251 DEB",
        "group": "cosmos-2251-debris",
        "lat": 43.05298181423652,
        "lon": 42.89192752358373,
        "alt_km": 694.5232229317753,
        "timestamp": "2025-12-06T11:28:11.458285+00:00",
        "meta_object_name": "COSMOS 2251 DEB",
        "meta_object_id": "1993-036AJS",
        "meta_epoch": "2025-12-05T20:30:59.855616",
        "meta_mean_motion": 14.65344236,
        "meta_eccentricity": 0.00396154,
        "meta_inclination": 73.9509,
        "meta_ra_of_asc_node": 28.4958,
        "meta_arg_of_pericenter": 262.8912,
        "meta_mean_anomaly": 96.775,
        "meta_ephemeris_type": 0,
        "meta_classification_type": "U",
        "meta_norad_cat_id": 35288,
        "meta_element_set_no": 999,
        "meta_rev_at_epoch": 87777,
        "meta_bstar": 0.0019659658,
        "meta_mean_motion_dot": 0.00010724,
        "meta_mean_motion_ddot": 0,
        "tle_line1": "1 35288U 93036AJS 25339.85485944  .00010724  00000+0  19660-2 0  9993",
        "tle_line2": "2 35288  73.9509  28.4958 0039615 262.8912  96.7750 14.65344236877779"
      },
      "geometry": {
        "type": "Point",
        "coordinates": [
          42.89192752358373,
          43.05298181423652
        ]
      }
    }
  ]
}